2024-092D               
1 59776U 24092D   26068.88372108  .00024443  00000+0  76511-3 0  9999
2 59776  97.6418 198.2302 0008340 141.9853 218.1979 15.33078357100518
STARLINK-35303          
1 65860U 25223G   26068.88468309  .00031084  00000+0  10570-2 0  9997
2 65860  53.1601 293.4015 0000870 102.6986 257.4112 15.30208014 24231
